{
  "norad_id": 59666,
  "name": "STARLINK-31902",
  "history": [
    {
      "epoch": "2026-03-28T20:53:22.037280Z",
      "apogee_km": 483.42456482415673,
      "perigee_km": 482.64897774105066,
      "latitude_deg": 7.541027302576621e-06,
      "longitude_deg": 154.10145070244425,
      "height_km": 482.79969333717577,
      "semi_major_axis_km": 6861.173771282603,
      "eccentricity": 5.652e-05,
      "inclination_deg": 43.0016,
      "raan_deg": 293.7279,
      "arg_perigee_deg": 271.9535,
      "mean_anomaly_deg": 88.1252,
      "mean_motion_rev_day": 15.27584116
    }
  ]
}